KUIPER-00204            
1 67145U 25301N   26012.83337963 -.01021306  00000+0 -44771-1 0  9995
2 67145  51.8818 335.3341 0004649 123.8722 233.9843 15.24320501  5253
KUIPER-00210            
1 67146U 25301P   26011.92387263  .00014080  00000+0  42010-3 0  9997
2 67146  51.8611 339.7720 0011228 194.3333 165.7336 15.34845751  5176
KUIPER-00221            
1 67147U 25301Q   26012.83337963  .00010056  00000+0  30724-3 0  9999
2 67147  51.8735 335.1222 0004922 166.2414 325.3085 15.34484730  4633
KUIPER-00232            
1 67148U 25301R   26012.59610063  .00015441  00000+0  42701-3 0  9999
2 67148  51.8753 336.0566 0002457  92.5867 267.5401 15.37200181  5111
KUIPER-00241            
1 67149U 25301S   26012.60390846  .00026102  00000+0  72166-3 0  9990
2 67149  51.8755 336.1059 0003122 128.0221 232.1048 15.36847261  5447
KUIPER-00245            
1 67150U 25301T   26012.83337963 -.00915667  00000+0 -39785-1 0  9991
2 67150  51.8774 335.4357 0007569 180.2923 130.6127 15.24292279  4631
KUIPER-00246            
1 67151U 25301U   26012.86907259  .00027419  00000+0  76349-3 0  9992
2 67151  51.8751 334.8842 0003883 154.7705 205.3471 15.36596608  5176
KUIPER-00247            
1 67152U 25301V   26012.05796458  .00017531  00000+0  52501-3 0  9999
2 67152  51.8638 339.1761 0011208 206.6273 153.4138 15.34547674  5020
KUIPER-00248            
1 67153U 25301W   26012.30560094  .00033983  00000+0  98100-3 0  9997
2 67153  51.8694 337.8478 0008772 193.8805 166.1941 15.35330022  5237
KUIPER-00249            
1 67154U 25301X   26012.62734779  .00042155  00000+0  11983-2 0  9990
2 67154  51.8676 336.2502 0008379 192.7258 167.3517 15.35713063  5111
KUIPER-00250            
1 67155U 25301Y   26012.61823811  .00027410  00000+0  77289-3 0  9995
2 67155  51.8738 336.2005 0006545 180.3014 179.7969 15.36192932  5143
KUIPER-00251            
1 67156U 25301Z   26012.30506472  .00031106  00000+0  89878-3 0  9997
2 67156  51.8684 337.8425 0009265 189.8209 170.2597 15.35340561  5256
